{"type": "FeatureCollection", "features": [ {"type": "Feature", "properties": {"norad_id": 33939, "name": "COSMOS 2251 DEB", "group": "cosmos-2251-debris", "lat": 72.6145507837304, "lon": 144.70411504825697, "alt_km": 557.1025310120776, "timestamp": "2025-12-13T20:38:51.400869+00:00", "meta": {"OBJECT_NAME": "COSMOS 2251 DEB", "OBJECT_ID": "1993-036EU", "EPOCH": "2025-12-13T07:28:24.467520", "MEAN_MOTION": 14.9997811, "ECCENTRICITY": 0.00038329, "INCLINATION": 74.0063, "RA_OF_ASC_NODE": 79.4634, "ARG_OF_PERICENTER": 53.8964, "MEAN_ANOMALY": 306.2577, "EPHEMERIS_TYPE": 0, "CLASSIFICATION_TYPE": "U", "NORAD_CAT_ID": 33939, "ELEMENT_SET_NO": 999, "REV_AT_EPOCH": 88761, "BSTAR": 0.005547803, "MEAN_MOTION_DOT": 0.00069638, "MEAN_MOTION_DDOT": 0}, "tle": {"line1": "1 33939U 93036EU  25347.31139430  .00069638  00000+0  55478-2 0  9995", "line2": "2 33939  74.0063  79.4634 0003832  53.8964 306.2577 14.99978110887612"}}, "geometry": {"type": "Point", "coordinates": [144.70411504825697, 72.6145507837304]}}, {"type": "Feature", "properties": {"norad_id": 33940, "name": "COSMOS 2251 DEB", "group": "cosmos-2251-debris", "lat": 45.233606654460075, "lon": 158.1334948655071, "alt_km": 700.7060721113694, "timestamp": "2025-12-13T20:38:51.400879+00:00", "meta": {"OBJECT_NAME": "COSMOS 2251 DEB", "OBJECT_ID": "1993-036EV", "EPOCH": "2025-12-13T04:47:25.188576", "MEAN_MOTION": 14.58803662, "ECCENTRICITY": 0.00112945, "INCLINATION": 74.0396, "RA_OF_ASC_NODE": 142.6211, "ARG_OF_PERICENTER": 222.5419, "MEAN_ANOMALY": 316.6622, "EPHEMERIS_TYPE": 0, "CLASSIFICATION_TYPE": "U", "NORAD_CAT_ID": 33940, "ELEMENT_SET_NO": 999, "REV_AT_EPOCH": 88600, "BSTAR": 0.0017001532, "MEAN_MOTION_DOT": 7.936e-05, "MEAN_MOTION_DDOT": 0}, "tle": {"line1": "1 33940U 93036EV  25347.19959709  .00007936  00000+0  17002-2 0  9996", "line2": "2 33940  74.0396 142.6211 0011294 222.5419 316.6622 14.58803662886000"}}, "geometry": {"type": "Point", "coordinates": [158.1334948655071, 45.233606654460075]}}, {"type": "Feature", "properties": {"norad_id": 33942, "name": "COSMOS 2251 DEB", "group": "cosmos-2251-debris", "lat": 18.007375816844153, "lon": 87.42656162148836, "alt_km": 779.2084042356528, "timestamp": "2025-12-13T20:38:51.400889+00:00", "meta": {"OBJECT_NAME": "COSMOS 2251 DEB", "OBJECT_ID": "1993-036EX", "EPOCH": "2025-12-13T05:24:43.707168", "MEAN_MOTION": 14.37989911, "ECCENTRICITY": 0.00203404, "INCLINATION": 74.0367, "RA_OF_ASC_NODE": 273.934, "ARG_OF_PERICENTER": 357.0936, "MEAN_ANOMALY": 119.0394, "EPHEMERIS_TYPE": 0, "CLASSIFICATION_TYPE": "U", "NORAD_CAT_ID": 33942, "ELEMENT_SET_NO": 999, "REV_AT_EPOCH": 88141, "BSTAR": 0.00036358803, "MEAN_MOTION_DOT": 1.076e-05, "MEAN_MOTION_DDOT": 0}, "tle": {"line1": "1 33942U 93036EX  25347.22550587  .00001076  00000+0  36359-3 0  9999", "line2": "2 33942  74.0367 273.9340 0020340 357.0936 119.0394 14.37989911881411"}}, "geometry": {"type": "Point", "coordinates": [87.42656162148836, 18.007375816844153]}}, {"type": "Feature", "properties": {"norad_id": 33944, "name": "COSMOS 2251 DEB", "group": "cosmos-2251-debris", "lat": 31.157743407697335, "lon": -43.17166161486347, "alt_km": 687.188266815916, "timestamp": "2025-12-13T20:38:51.400899+00:00", "meta": {"OBJECT_NAME": "COSMOS 2251 DEB", "OBJECT_ID": "1993-036EZ", "EPOCH": "2025-12-13T07:39:29.312928", "MEAN_MOTION": 14.37345909, "ECCENTRICITY": 0.01121974, "INCLINATION": 74.0403, "RA_OF_ASC_NODE": 307.8601, "ARG_OF_PERICENTER": 47.3089, "MEAN_ANOMALY": 66.2131, "EPHEMERIS_TYPE": 0, "CLASSIFICATION_TYPE": "U", "NORAD_CAT_ID": 33944, "ELEMENT_SET_NO": 999, "REV_AT_EPOCH": 88036, "BSTAR": 0.0005593044, "MEAN_MOTION_DOT": 1.769e-05, "MEAN_MOTION_DDOT": 0}, "tle": {"line1": "1 33944U 93036EZ  25347.31908927  .00001769  00000+0  55930-3 0  9991", "line2": "2 33944  74.0403 307.8601 0112197  47.3089  66.2131 14.37345909880369"}}, "geometry": {"type": "Point", "coordinates": [-43.17166161486347, 31.157743407697335]}}, {"type": "Feature", "properties": {"norad_id": 33945, "name": "COSMOS 2251 DEB", "group": "cosmos-2251-debris", "lat": 4.819476914418311, "lon": 122.830468713602, "alt_km": 791.1203165323468, "timestamp": "2025-12-13T20:38:51.400909+00:00", "meta": {"OBJECT_NAME": "COSMOS 2251 DEB", "OBJECT_ID": "1993-036FA", "EPOCH": "2025-12-13T06:26:51.315936", "MEAN_MOTION": 14.34601829, "ECCENTRICITY": 0.00219183, "INCLINATION": 74.0298, "RA_OF_ASC_NODE": 305.2977, "ARG_OF_PERICENTER": 31.4906, "MEAN_ANOMALY": 328.7553, "EPHEMERIS_TYPE": 0, "CLASSIFICATION_TYPE": "U", "NORAD_CAT_ID": 33945, "ELEMENT_SET_NO": 999, "REV_AT_EPOCH": 88023, "BSTAR": 0.00023020487, "MEAN_MOTION_DOT": 6.26e-06, "MEAN_MOTION_DDOT": 0}, "tle": {"line1": "1 33945U 93036FA  25347.26864949  .00000626  00000+0  23020-3 0  9997", "line2": "2 33945  74.0298 305.2977 0021918  31.4906 328.7553 14.34601829880235"}}, "geometry": {"type": "Point", "coordinates": [122.830468713602, 4.819476914418311]}}, {"type": "Feature", "properties": {"norad_id": 33948, "name": "COSMOS 2251 DEB", "group": "cosmos-2251-debris", "lat": 26.606354102807316, "lon": -48.677821971026475, "alt_km": 755.5587784316485, "timestamp": "2025-12-13T20:38:51.400919+00:00", "meta": {"OBJECT_NAME": "COSMOS 2251 DEB", "OBJECT_ID": "1993-036FD", "EPOCH": "2025-12-13T07:08:24.088128", "MEAN_MOTION": 14.35630699, "ECCENTRICITY": 0.00227382, "INCLINATION": 74.0356, "RA_OF_ASC_NODE": 304.1105, "ARG_OF_PERICENTER": 19.7912, "MEAN_ANOMALY": 340.4117, "EPHEMERIS_TYPE": 0, "CLASSIFICATION_TYPE": "U", "NORAD_CAT_ID": 33948, "ELEMENT_SET_NO": 999, "REV_AT_EPOCH": 88031, "BSTAR": 0.00033011318, "MEAN_MOTION_DOT": 9.29e-06, "MEAN_MOTION_DDOT": 0}, "tle": {"line1": "1 33948U 93036FD  25347.29750102  .00000929  00000+0  33011-3 0  9995", "line2": "2 33948  74.0356 304.1105 0022738  19.7912 340.4117 14.35630699880315"}}, "geometry": {"type": "Point", "coordinates": [-48.677821971026475, 26.606354102807316]}}, {"type": "Feature", "properties": {"norad_id": 33971, "name": "COSMOS 2251 DEB", "group": "cosmos-2251-debris", "lat": 62.72961070336837, "lon": 37.903002197538804, "alt_km": 759.6277853982365, "timestamp": "2025-12-13T20:38:51.400929+00:00", "meta": {"OBJECT_NAME": "COSMOS 2251 DEB", "OBJECT_ID": "1993-036FE", "EPOCH": "2025-12-13T04:00:27.963648", "MEAN_MOTION": 14.39726897, "ECCENTRICITY": 0.00185564, "INCLINATION": 74.025, "RA_OF_ASC_NODE": 252.9434, "ARG_OF_PERICENTER": 353.3187, "MEAN_ANOMALY": 126.7713, "EPHEMERIS_TYPE": 0, "CLASSIFICATION_TYPE": "U", "NORAD_CAT_ID": 33971, "ELEMENT_SET_NO": 999, "REV_AT_EPOCH": 88145, "BSTAR": 0.00043001749, "MEAN_MOTION_DOT": 1.323e-05, "MEAN_MOTION_DDOT": 0}, "tle": {"line1": "1 33971U 93036FE  25347.16699032  .00001323  00000+0  43002-3 0  9991", "line2": "2 33971  74.0250 252.9434 0018556 353.3187 126.7713 14.39726897881456"}}, "geometry": {"type": "Point", "coordinates": [37.903002197538804, 62.72961070336837]}}, {"type": "Feature", "properties": {"norad_id": 33972, "name": "COSMOS 2251 DEB", "group": "cosmos-2251-debris", "lat": 35.22332790489088, "lon": -159.7065449177816, "alt_km": 701.0978985321908, "timestamp": "2025-12-13T20:38:51.400940+00:00", "meta": {"OBJECT_NAME": "COSMOS 2251 DEB", "OBJECT_ID": "1993-036FF", "EPOCH": "2025-12-13T01:08:15.733248", "MEAN_MOTION": 14.36227105, "ECCENTRICITY": 0.01232962, "INCLINATION": 73.9944, "RA_OF_ASC_NODE": 190.0976, "ARG_OF_PERICENTER": 357.7909, "MEAN_ANOMALY": 156.8269, "EPHEMERIS_TYPE": 0, "CLASSIFICATION_TYPE": "U", "NORAD_CAT_ID": 33972, "ELEMENT_SET_NO": 999, "REV_AT_EPOCH": 87078, "BSTAR": 0.0016474913, "MEAN_MOTION_DOT": 5.221e-05, "MEAN_MOTION_DDOT": 0}, "tle": {"line1": "1 33972U 93036FF  25347.04740432  .00005221  00000+0  16475-2 0  9994", "line2": "2 33972  73.9944 190.0976 0123296 357.7909 156.8269 14.36227105870785"}}, "geometry": {"type": "Point", "coordinates": [-159.7065449177816, 35.22332790489088]}}, {"type": "Feature", "properties": {"norad_id": 33973, "name": "COSMOS 2251 DEB", "group": "cosmos-2251-debris", "lat": -3.157193987784809, "lon": -78.29220837372571, "alt_km": 746.9935625610424, "timestamp": "2025-12-13T20:38:51.400950+00:00", "meta": {"OBJECT_NAME": "COSMOS 2251 DEB", "OBJECT_ID": "1993-036FG", "EPOCH": "2025-12-12T17:45:15.721920", "MEAN_MOTION": 14.45391131, "ECCENTRICITY": 0.00473316, "INCLINATION": 74.0084, "RA_OF_ASC_NODE": 102.8928, "ARG_OF_PERICENTER": 281.3062, "MEAN_ANOMALY": 194.07, "EPHEMERIS_TYPE": 0, "CLASSIFICATION_TYPE": "U", "NORAD_CAT_ID": 33973, "ELEMENT_SET_NO": 999, "REV_AT_EPOCH": 88600, "BSTAR": 0.00025232311, "MEAN_MOTION_DOT": 8.72e-06, "MEAN_MOTION_DDOT": 0}, "tle": {"line1": "1 33973U 93036FG  25346.73976530  .00000872  00000+0  25232-3 0  9999", "line2": "2 33973  74.0084 102.8928 0047331 281.3062 194.0700 14.45391131886005"}}, "geometry": {"type": "Point", "coordinates": [-78.29220837372571, -3.157193987784809]}}, {"type": "Feature", "properties": {"norad_id": 33975, "name": "COSMOS 2251 DEB", "group": "cosmos-2251-debris", "lat": -50.76856121264971, "lon": 61.62905751660037, "alt_km": 898.5302374091989, "timestamp": "2025-12-13T20:38:51.400960+00:00", "meta": {"OBJECT_NAME": "COSMOS 2251 DEB", "OBJECT_ID": "1993-036FJ", "EPOCH": "2025-12-13T07:11:37.339008", "MEAN_MOTION": 14.00527463, "ECCENTRICITY": 0.01912973, "INCLINATION": 73.802, "RA_OF_ASC_NODE": 83.4687, "ARG_OF_PERICENTER": 216.2734, "MEAN_ANOMALY": 142.5306, "EPHEMERIS_TYPE": 0, "CLASSIFICATION_TYPE": "U", "NORAD_CAT_ID": 33975, "ELEMENT_SET_NO": 999, "REV_AT_EPOCH": 85837, "BSTAR": 0.0010027015, "MEAN_MOTION_DOT": 1.719e-05, "MEAN_MOTION_DDOT": 0}, "tle": {"line1": "1 33975U 93036FJ  25347.29973772  .00001719  00000+0  10027-2 0  9994", "line2": "2 33975  73.8020  83.4687 0191297 216.2734 142.5306 14.00527463858373"}}, "geometry": {"type": "Point", "coordinates": [61.62905751660037, -50.76856121264971]}}]}